ION SCV-004             
1 50993U 22002K   26068.68892644  .00006538  00000+0  23198-3 0  9998
2 50993  97.2961 128.2294 0007216   1.6783 358.4480 15.29369331230088
STARLINK-34557          
1 64726U 25144C   26068.63156197  .00043723  00000+0  14798-2 0  9990
2 64726  53.1600 181.2678 0001265  65.2242 294.8891 15.30196866 39705
